STARLINK-5191           
1 54763U 22175F   26068.20456488  .00000179  00000+0  29330-4 0  9998
2 54763  53.2177  46.4475 0001403  87.5200 272.5953 15.08840131179845
YAM-8                   
1 63254U 25052AW  26068.73092778  .00007810  00000+0  47267-3 0  9993
2 63254  97.7023 329.5345 0002369 152.6796 207.4558 15.10898938 54245
